C/2019 M4 (TESS),h,09/09.6942/2019,65.6901,52.6427,260.3428,1.000467,9.191044,2000,5.0,4.0
# From MPEC 2023-C45
C/2019 N1 (ATLAS),e,82.5265,13.5151,193.3451,974.3779,0.0000324,0.99825208,0.0000,11/30.5355/2020,2000,g  7.5,4.0
# From MPEC 2023-CD8
A/2019 N2,e,89.3219,276.2228,347.0721,1145,0.0000255,0.99830468,0.0000,08/22.4482/2019,2000,g 12.5,2.0
# From MPEC 2022-A21
C/2019 NJ3 (Lemmon),h,10/22.2866/2020,99.3378,142.4921,246.8732,1.001468,4.362925,2000,9.0,4.0
# From MPC184408
C/2019 O2 (PANSTARRS),e,93.3006,48.2626,129.5768,58.73413,0.0021896,0.83517191,1.7340,06/06.0/2025,2000,g  5.0,4.0
# From MPC182878
C/2019 O3 (Palomar),h,03/08.4873/2021,89.7969,300.4753,60.1022,1.002800,8.820772,2000,3.5,4.0
# From MPEC 2021-P47
A/2019 O4,e,115.0077,354.9267,61.8268,33.23312,0.0051446,0.89039485,9.9900,06/06.0/2025,2000,g 15.5,2.0
# From MPEC 2024-EF7
C/2019 Q1 (Lemmon),h,07/22.1502/2020,155.7220,42.4664,56.2554,1.002370,5.002972,2000,8.5,4.0
# From MPC117072
A/2019 Q2,e,158.9739,188.1203,176.5073,58.77587,0.0021873,0.97854494,0.0000,07/23.5990/2019,2000,g 18.0,2.0
# From MPC117072
P/2019 S2 (PANSTARRS),e,10.4637,93.1805,216.9395,4.747319,0.0952865,0.20467695,219.3142,06/06.0/2025,2000,g 13.5,4.0
# From MPEC 2022-CN4
P/2019 S3 (PANSTARRS),e,8.6940,150.1411,213.0946,3.414500,0.1562116,0.47076017,329.3568,06/06.0/2025,2000,g 18.3,4.0
# From MPEC 2021-S45
C/2019 S4 (Lemmon),e,92.0969,63.1561,71.3710,248.5038,0.0002516,0.98616013,0.0000,04/09.3368/2020,2000,g 11.0,4.0
# From MPEC 2023-N01
A/2019 T1,e,120.8230,6.9310,90.9860,38.76246,0.0040840,0.88971345,6.5469,06/06.0/2025,2000,g 13.0,2.0
# From MPEC 2023-R20
C/2019 T2 (Lemmon),e,111.3754,155.6549,239.3890,3516,0.0000047,0.99924817,0.0000,04/22.5349/2021,2000,g  9.0,4.0
# From MPEC 2023-UR6
C/2019 T3 (ATLAS),e,121.8728,139.5427,112.4874,4495,0.0000033,0.99867562,0.0000,03/04.6956/2021,2000,g  6.8,4.0
# From MPC182878
C/2019 T4 (ATLAS),e,53.6247,199.9039,351.1092,880.1143,0.0000377,0.99518507,0.0000,06/08.6610/2022,2000,g  5.0,4.0
# From MPEC 2021-P47
P/2019 T5 (ATLAS),e,33.4937,247.6125,189.6221,8.007405,0.0434977,0.80978400,92.8065,06/06.0/2025,2000,g 15.0,4.0
# From MPEC 2021-P47
P/2019 T6 (PANSTARRS),e,18.6988,71.2472,329.0578,5.442729,0.0776210,0.62249151,158.0432,06/06.0/2025,2000,g 15.5,4.0
# From MPC118096
P/2019 U4 (PANSTARRS),e,11.6954,200.0024,181.0804,3.518900,0.1493117,0.47575744,311.2468,06/06.0/2025,2000,g 19.0,4.0
# From MPC184408
C/2019 U5 (PANSTARRS),h,03/29.4655/2023,113.5124,2.6141,181.4509,1.000220,3.624214,2000,4.5,4.0
# From MPEC 2022-H04
C/2019 U6 (Lemmon),e,60.9844,235.7538,329.4330,304.3455,0.0001856,0.99702063,0.0000,06/18.3119/2020,2000,g 10.0,4.0
# From MPEC 2022-N37
C/2019 V1 (Borisov),e,61.9482,83.1481,51.1918,2571,0.0000076,0.99879708,0.0000,07/17.5249/2020,2000,g 11.0,4.0
# From MPEC 2022-L66
P/2019 V2 (Groeller),e,11.8069,189.1400,335.6321,7.494827,0.0480354,0.33184622,81.3147,06/06.0/2025,2000,g 10.0,4.0
# From MPEC 2023-A50
P/2019 W1 (PANSTARRS),e,23.4670,35.3627,18.8851,4.548564,0.1015997,0.26720221,225.2530,06/06.0/2025,2000,g 12.9,4.0
# From MPEC 2021-P47
P/2019 X1 (Pruyne),e,10.2460,43.6774,36.9828,6.179293,0.0641647,0.30384400,137.5277,06/06.0/2025,2000,g 10.4,4.0
# From MPEC 2020-C98
P/2019 X2 (Pan-STARRS),e,15.8947,250.8318,213.5121,3.634171,0.1422643,0.50046385,284.9855,06/06.0/2025,2000,g 18.0,4.0
# From MPC119999
C/2019 Y1 (ATLAS),e,73.2855,31.4814,57.9143,88.14662,0.0011910,0.99062426,0.0000,03/17.1635/2020,2000,g 13.7,4.0
# From MPEC 2024-A43
C/2019 Y4 (ATLAS),e,44.9419,120.7882,177.4116,331.6766,0.0001632,0.99922453,0.0000,05/29.7117/2020,2000,g 11.8,6.0
# From MPEC 2020-L06
C/2019 Y4-A (ATLAS),h,05/29.7641/2020,45.3769,121.1558,177.2439,1.001367,0.255359,2000,11.6,6.0
# From MPEC 2025-CE3
C/2019 Y4-B (ATLAS),e,45.0233,120.8514,177.3707,1377,0.0000193,0.99981351,0.0000,05/29.7200/2020,2000,g 12.1,6.0
# From MPEC 2020-L06
C/2019 Y4-C (ATLAS),h,05/29.7177/2020,45.1606,120.8831,177.2767,1.002095,0.256431,2000,12.7,6.0
# From MPEC 2020-L06
C/2019 Y4-D (ATLAS),e,45.2133,121.2450,177.4195,67.34878,0.0017832,0.99620257,0.0000,05/29.8066/2020,2000,g 12.5,6.0
# From MPEC 2023-A50
C/2019 Y5 (PANSTARRS),e,82.7732,51.7653,303.6620,688.4770,0.0000546,0.99283427,0.0000,08/16.6220/2019,2000,g 11.0,4.0
# From MPEC 2023-A50
A/2020 A1,e,149.0316,119.0674,302.4018,25.46638,0.0076693,0.93437147,15.4513,06/06.0/2025,2000,g 18.0,2.0
# From MPEC 2022-YN2
C/2020 A2 (Iwamoto),e,120.5077,286.1914,68.0146,973.9300,0.0000324,0.99899879,0.0000,01/07.1903/2020,2000,g 13.5,4.0
# From MPEC 2023-A50
C/2020 A3 (ATLAS),e,146.6222,120.7989,268.2390,5377,0.0000025,0.99893009,0.0000,06/26.9762/2019,2000,g  8.0,4.0
# From MPEC 2022-P91
P/2020 A4 (PANSTARRS-Lemmon),e,25.0022,312.2841,144.8986,8.202524,0.0419549,0.65447150,84.7732,06/06.0/2025,2000,g 15.0,4.0
# From MPEC 2020-N08
A/2020 B1,e,18.5397,309.8079,154.8719,52.06191,0.0026238,0.96659525,5.2144,06/06.0/2025,2000,g 21.0,2.0
# From MPEC 2020-HN5
C/2020 B2 (Lemmon),e,55.7547,354.1830,143.6250,67.87738,0.0017624,0.95939599,3.4486,06/06.0/2025,2000,g 10.0,4.0
# From MPEC 2022-N37
C/2020 B3 (Rankin),e,20.7068,185.7511,324.9261,1043,0.0000292,0.99681044,0.0000,10/20.7172/2019,2000,g 13.0,4.0
# From MPEC 2023-KD6
P/2020 B4 (Sheppard),e,11.6032,185.9505,342.0442,7.973066,0.0437790,0.19285536,56.6845,06/06.0/2025,2000,g 10.5,4.0
# From MPC184409
C/2020 F2 (ATLAS),h,07/12.5866/2022,163.5896,250.3012,48.2396,1.002710,8.813557,2000,4.5,4.0
# From MPEC 2021-O56
C/2020 F3 (NEOWISE),e,129.1188,61.0793,37.3523,401.1571,0.0001227,0.99926813,0.0000,07/04.8884/2020,2000,g  7.5,5.2
# From MPEC 2024-UQ8
C/2020 F5 (MASTER),e,52.2309,350.5390,310.6214,164.5388,0.0004670,0.97370680,0.0000,03/16.2307/2021,2000,g  6.5,3.2
# From MPEC 2020-L06
C/2020 F6 (PANSTARRS),e,174.5841,207.8441,344.3411,343.9171,0.0001545,0.98982823,0.0000,04/10.4179/2020,2000,g 14.5,2.8
# From MPEC 2024-A43
C/2020 F7 (Lemmon),e,93.9808,321.8236,227.9808,569.1998,0.0000726,0.99062761,0.0000,11/13.8473/2021,2000,g  7.0,4.0
# From MPEC 2023-J29
C/2020 F8 (SWAN),h,05/25.8916/2020,110.5559,259.8021,68.1079,1.000069,0.432541,2000,10.0,4.0
# From MPEC 2020-L06
P/2020 G1 (Pimentel),e,18.5076,240.0998,207.6458,3.606608,0.1438983,0.86081129,274.0541,06/06.0/2025,2000,g 17.0,4.0
# From MPEC 2022-YB4
C/2020 H2 (Pruyne),e,124.7810,277.6716,26.5869,177.5243,0.0004167,0.99533285,0.0000,04/26.9476/2020,2000,g 14.0,3.2
# From MPEC 2020-HM1
C/2020 H3 (Wierzchos),p,06/05.7162/2020,62.5292,30.4456,2.300288,270.6227,2000,13.5,4.0
# From MPEC 2020-L06
C/2020 H4 (Leonard),e,84.4946,307.4625,117.5731,47.84541,0.0029781,0.98061927,0.0000,08/29.2567/2020,2000,g 15.0,3.2
# From MPC184409
C/2020 H5 (Robinson),e,70.2305,210.6156,326.2665,5870,0.0000022,0.99840960,0.0000,12/09.9596/2020,2000,g  5.0,4.0
# From MPEC 2024-JU4
C/2020 H6 (ATLAS),e,79.9878,213.6939,20.1960,2024,0.0000108,0.99767986,0.0000,09/29.6113/2021,2000,g  8.0,3.2
# From MPEC 2020-KB7
C/2020 H7 (Lemmon),e,135.9235,323.5194,82.6780,1405,0.0000187,0.99685380,0.0000,06/02.9510/2020,2000,g 11.0,4.0
# From MPEC 2021-N06
C/2020 H8 (PANSTARRS),e,99.7034,68.4393,128.8243,591.2772,0.0000686,0.99211222,0.0000,06/04.7783/2020,2000,g 10.5,4.0
# From MPEC 2022-ED3
A/2020 H9,e,137.8740,213.1237,312.6279,342.7581,0.0001553,0.99252445,0.0000,12/21.8034/2019,2000,g 18.0,2.0
# From MPEC 2023-HN7
C/2020 H11 (PANSTARRS-Lemmon),e,151.3742,303.0568,91.3688,50470,0.0000001,0.99984900,0.0000,09/12.6535/2020,2000,g  8.5,4.0
# From MPEC 2023-KD6
C/2020 J1 (SONEAR),e,142.3071,226.5879,341.5857,11473,0.0000008,0.99970842,0.0000,04/18.0761/2021,2000,g  8.5,3.2
# From MPC184409
C/2020 K1 (PANSTARRS),e,89.6715,94.3662,213.9710,2546,0.0000077,0.99879277,0.0000,05/08.7834/2023,2000,g  5.5,4.0
# From MPEC 2021-N06
C/2020 K2 (PANSTARRS),h,08/04.5274/2020,90.9896,288.4330,67.3121,1.001075,8.880281,2000,10.8,4.0
# From MPEC 2020-KF9
C/2020 K3 (Leonard),p,06/01.0032/2020,129.0152,64.4924,1.583069,28.3546,2000,14.5,4.0
# From MPEC 2020-L06
C/2020 K4 (PANSTARRS),e,125.5850,264.2742,308.7892,23.92818,0.0084205,0.92709800,16.1594,06/06.0/2025,2000,g 16.5,4.0
# From MPEC 2021-R75
C/2020 K5 (PANSTARRS),h,06/04.3112/2021,67.0689,86.1419,249.6409,1.000825,1.540537,2000,11.0,4.0
# From MPEC 2023-N01
C/2020 K6 (Rankin),h,09/14.7994/2021,103.6312,291.5984,44.2812,1.002205,5.866224,2000,8.0,4.0
# From MPEC 2023-A50
C/2020 K7 (PANSTARRS),e,32.0444,286.1313,358.0880,94.74754,0.0010687,0.93257059,2.1915,06/06.0/2025,2000,g  8.0,4.0
# From MPEC 2021-P47
C/2020 K8 (Catalina-ATLAS),h,09/15.6806/2020,31.3846,181.3124,260.1497,1.000315,0.471453,2000,15.0,3.2
# From MPEC 2021-BE3
P/2020 K9 (Lemmon-PANSTARRS),e,23.1909,166.3114,197.0913,4.207233,0.1142113,0.32016763,179.9685,06/06.0/2025,2000,g 12.5,4.0
# From MPEC 2023-C45
P/2020 M1 (PANSTARRS),e,8.5345,142.6142,72.4982,5.312051,0.0805028,0.47347783,160.3425,06/06.0/2025,2000,g 14.5,4.0
# From MPEC 2022-H30
C/2020 M3 (ATLAS),e,23.4705,71.1752,328.6657,27.30126,0.0069092,0.95330427,11.6367,06/06.0/2025,2000,g 14.5,4.0
# From MPEC 2023-N01
A/2020 M4,e,160.1033,348.6151,104.4858,32795,0.0000002,0.99981884,0.0000,11/22.8511/2020,2000,g 14.5,2.0
# From MPEC 2024-NE4
P/2020 MK4 (PANSTARRS),e,6.7816,0.6662,93.5426,6.223784,0.0634779,0.01500631,316.7519,06/06.0/2025,2000,g  8.0,4.0
# From MPEC 2023-FK0
C/2020 M5 (ATLAS),h,08/19.7625/2021,93.1752,352.0227,126.2459,1.000130,2.999885,2000,9.0,4.0
# From MPEC 2022-GA9
C/2020 N1 (PANSTARRS),h,03/13.1160/2021,29.7650,279.8579,186.8325,1.000849,1.317530,2000,12.5,4.0
# From MPEC 2021-P47
C/2020 N2 (ATLAS),e,161.0386,257.1800,331.2081,101.4517,0.0009645,0.98241321,0.0000,08/24.3178/2020,2000,g 16.0,3.2
# From MPEC 2024-JU4
C/2020 O2 (Amaral),e,71.7622,256.7916,10.1791,14510,0.0000006,0.99966527,0.0000,08/27.3256/2021,2000,g  8.0,3.2
# From MPEC 2023-C45
P/2020 O3 (PANSTARRS),e,8.4445,266.8184,81.2185,4.646232,0.0984130,0.10241120,156.7541,06/06.0/2025,2000,g 12.0,4.0
# From MPEC 2021-BE3
C/2020 P1 (NEOWISE),h,10/21.1880/2020,45.1171,53.4867,8.9309,1.000434,0.341716,2000,14.0,3.2
